<?xml version="1.0" encoding="UTF-8"?>
<ndm xmlns:xsi="http://www.w3.org/2001/XMLSchema-instance" xsi:noNamespaceSchemaLocation="https://sanaregistry.org/r/ndmxml_unqualified/ndmxml-2.0.0-master-2.0.xsd">
<omm id="CCSDS_OMM_VERS" version="2.0">
<header><CREATION_DATE/><ORIGINATOR/></header><body><segment><metadata><OBJECT_NAME>ONEWEB-0647</OBJECT_NAME><OBJECT_ID>2023-043AK</OBJECT_ID><CENTER_NAME>EARTH</CENTER_NAME><REF_FRAME>TEME</REF_FRAME><TIME_SYSTEM>UTC</TIME_SYSTEM><MEAN_ELEMENT_THEORY>SGP4</MEAN_ELEMENT_THEORY></metadata><data><meanElements><EPOCH>2023-11-07T03:02:35.211552</EPOCH><MEAN_MOTION>13.15556949</MEAN_MOTION><ECCENTRICITY>.0001763</ECCENTRICITY><INCLINATION>87.8981</INCLINATION><RA_OF_ASC_NODE>88.9680</RA_OF_ASC_NODE><ARG_OF_PERICENTER>81.3755</ARG_OF_PERICENTER><MEAN_ANOMALY>278.7575</MEAN_ANOMALY></meanElements><tleParameters><EPHEMERIS_TYPE>0</EPHEMERIS_TYPE><CLASSIFICATION_TYPE>U</CLASSIFICATION_TYPE><NORAD_CAT_ID>56079</NORAD_CAT_ID><ELEMENT_SET_NO>999</ELEMENT_SET_NO><REV_AT_EPOCH>3111</REV_AT_EPOCH><BSTAR>-.37029E-2</BSTAR><MEAN_MOTION_DOT>-.1381E-4</MEAN_MOTION_DOT><MEAN_MOTION_DDOT>0</MEAN_MOTION_DDOT></tleParameters></data></segment></body></omm>
<omm id="CCSDS_OMM_VERS" version="2.0">
<header><CREATION_DATE/><ORIGINATOR/></header><body><segment><metadata><OBJECT_NAME>ONEWEB-0651</OBJECT_NAME><OBJECT_ID>2023-043AL</OBJECT_ID><CENTER_NAME>EARTH</CENTER_NAME><REF_FRAME>TEME</REF_FRAME><TIME_SYSTEM>UTC</TIME_SYSTEM><MEAN_ELEMENT_THEORY>SGP4</MEAN_ELEMENT_THEORY></metadata><data><meanElements><EPOCH>2023-11-06T21:27:10.652256</EPOCH><MEAN_MOTION>13.15548872</MEAN_MOTION><ECCENTRICITY>.0002442</ECCENTRICITY><INCLINATION>87.8969</INCLINATION><RA_OF_ASC_NODE>88.9865</RA_OF_ASC_NODE><ARG_OF_PERICENTER>89.2533</ARG_OF_PERICENTER><MEAN_ANOMALY>270.8877</MEAN_ANOMALY></meanElements><tleParameters><EPHEMERIS_TYPE>0</EPHEMERIS_TYPE><CLASSIFICATION_TYPE>U</CLASSIFICATION_TYPE><NORAD_CAT_ID>56080</NORAD_CAT_ID><ELEMENT_SET_NO>999</ELEMENT_SET_NO><REV_AT_EPOCH>3228</REV_AT_EPOCH><BSTAR>-.46655E-3</BSTAR><MEAN_MOTION_DOT>-.163E-5</MEAN_MOTION_DOT><MEAN_MOTION_DDOT>0</MEAN_MOTION_DDOT></tleParameters></data></segment></body></omm>
<omm id="CCSDS_OMM_VERS" version="2.0">
<header><CREATION_DATE/><ORIGINATOR/></header><body><segment><metadata><OBJECT_NAME>ONEWEB-0718</OBJECT_NAME><OBJECT_ID>2023-043AM</OBJECT_ID><CENTER_NAME>EARTH</CENTER_NAME><REF_FRAME>TEME</REF_FRAME><TIME_SYSTEM>UTC</TIME_SYSTEM><MEAN_ELEMENT_THEORY>SGP4</MEAN_ELEMENT_THEORY></metadata><data><meanElements><EPOCH>2023-11-06T21:20:20.803488</EPOCH><MEAN_MOTION>13.15549022</MEAN_MOTION><ECCENTRICITY>.0001481</ECCENTRICITY><INCLINATION>87.8904</INCLINATION><RA_OF_ASC_NODE>88.9912</RA_OF_ASC_NODE><ARG_OF_PERICENTER>121.0691</ARG_OF_PERICENTER><MEAN_ANOMALY>239.0585</MEAN_ANOMALY></meanElements><tleParameters><EPHEMERIS_TYPE>0</EPHEMERIS_TYPE><CLASSIFICATION_TYPE>U</CLASSIFICATION_TYPE><NORAD_CAT_ID>56081</NORAD_CAT_ID><ELEMENT_SET_NO>999</ELEMENT_SET_NO><REV_AT_EPOCH>3109</REV_AT_EPOCH><BSTAR>-.21365E-3</BSTAR><MEAN_MOTION_DOT>-.68E-6</MEAN_MOTION_DOT><MEAN_MOTION_DDOT>0</MEAN_MOTION_DDOT></tleParameters></data></segment></body></omm>
<omm id="CCSDS_OMM_VERS" version="2.0">
<header><CREATION_DATE/><ORIGINATOR/></header><body><segment><metadata><OBJECT_NAME>GSLV R/B</OBJECT_NAME><OBJECT_ID>2023-043AN</OBJECT_ID><CENTER_NAME>EARTH</CENTER_NAME><REF_FRAME>TEME</REF_FRAME><TIME_SYSTEM>UTC</TIME_SYSTEM><MEAN_ELEMENT_THEORY>SGP4</MEAN_ELEMENT_THEORY></metadata><data><meanElements><EPOCH>2023-11-06T18:59:56.104512</EPOCH><MEAN_MOTION>15.50297057</MEAN_MOTION><ECCENTRICITY>.0019217</ECCENTRICITY><INCLINATION>87.4119</INCLINATION><RA_OF_ASC_NODE>62.3274</RA_OF_ASC_NODE><ARG_OF_PERICENTER>223.6958</ARG_OF_PERICENTER><MEAN_ANOMALY>136.2782</MEAN_ANOMALY></meanElements><tleParameters><EPHEMERIS_TYPE>0</EPHEMERIS_TYPE><CLASSIFICATION_TYPE>U</CLASSIFICATION_TYPE><NORAD_CAT_ID>56082</NORAD_CAT_ID><ELEMENT_SET_NO>999</ELEMENT_SET_NO><REV_AT_EPOCH>3479</REV_AT_EPOCH><BSTAR>.13665E-2</BSTAR><MEAN_MOTION_DOT>.78541E-3</MEAN_MOTION_DOT><MEAN_MOTION_DDOT>0</MEAN_MOTION_DDOT></tleParameters></data></segment></body></omm>
<omm id="CCSDS_OMM_VERS" version="2.0">
<header><CREATION_DATE/><ORIGINATOR/></header><body><segment><metadata><OBJECT_NAME>ONEWEB-0561</OBJECT_NAME><OBJECT_ID>2023-068A</OBJECT_ID><CENTER_NAME>EARTH</CENTER_NAME><REF_FRAME>TEME</REF_FRAME><TIME_SYSTEM>UTC</TIME_SYSTEM><MEAN_ELEMENT_THEORY>SGP4</MEAN_ELEMENT_THEORY></metadata><data><meanElements><EPOCH>2023-11-06T22:10:22.697184</EPOCH><MEAN_MOTION>13.34312171</MEAN_MOTION><ECCENTRICITY>.0001674</ECCENTRICITY><INCLINATION>88.2886</INCLINATION><RA_OF_ASC_NODE>99.1422</RA_OF_ASC_NODE><ARG_OF_PERICENTER>64.7115</ARG_OF_PERICENTER><MEAN_ANOMALY>295.4199</MEAN_ANOMALY></meanElements><tleParameters><EPHEMERIS_TYPE>0</EPHEMERIS_TYPE><CLASSIFICATION_TYPE>U</CLASSIFICATION_TYPE><NORAD_CAT_ID>56710</NORAD_CAT_ID><ELEMENT_SET_NO>999</ELEMENT_SET_NO><REV_AT_EPOCH>2348</REV_AT_EPOCH><BSTAR>.89073E-4</BSTAR><MEAN_MOTION_DOT>.57E-6</MEAN_MOTION_DOT><MEAN_MOTION_DDOT>0</MEAN_MOTION_DDOT></tleParameters></data></segment></body></omm>
<omm id="CCSDS_OMM_VERS" version="2.0">
<header><CREATION_DATE/><ORIGINATOR/></header><body><segment><metadata><OBJECT_NAME>ONEWEB-0668</OBJECT_NAME><OBJECT_ID>2023-068B</OBJECT_ID><CENTER_NAME>EARTH</CENTER_NAME><REF_FRAME>TEME</REF_FRAME><TIME_SYSTEM>UTC</TIME_SYSTEM><MEAN_ELEMENT_THEORY>SGP4</MEAN_ELEMENT_THEORY></metadata><data><meanElements><EPOCH>2023-11-06T19:30:11.017728</EPOCH><MEAN_MOTION>14.78752488</MEAN_MOTION><ECCENTRICITY>.0014521</ECCENTRICITY><INCLINATION>86.7220</INCLINATION><RA_OF_ASC_NODE>70.6502</RA_OF_ASC_NODE><ARG_OF_PERICENTER>354.4084</ARG_OF_PERICENTER><MEAN_ANOMALY>5.6973</MEAN_ANOMALY></meanElements><tleParameters><EPHEMERIS_TYPE>0</EPHEMERIS_TYPE><CLASSIFICATION_TYPE>U</CLASSIFICATION_TYPE><NORAD_CAT_ID>56711</NORAD_CAT_ID><ELEMENT_SET_NO>999</ELEMENT_SET_NO><REV_AT_EPOCH>2531</REV_AT_EPOCH><BSTAR>.95481E-3</BSTAR><MEAN_MOTION_DOT>.7048E-4</MEAN_MOTION_DOT><MEAN_MOTION_DDOT>0</MEAN_MOTION_DDOT></tleParameters></data></segment></body></omm>
<omm id="CCSDS_OMM_VERS" version="2.0">
<header><CREATION_DATE/><ORIGINATOR/></header><body><segment><metadata><OBJECT_NAME>ONEWEB-0676</OBJECT_NAME><OBJECT_ID>2023-068C</OBJECT_ID><CENTER_NAME>EARTH</CENTER_NAME><REF_FRAME>TEME</REF_FRAME><TIME_SYSTEM>UTC</TIME_SYSTEM><MEAN_ELEMENT_THEORY>SGP4</MEAN_ELEMENT_THEORY></metadata><data><meanElements><EPOCH>2023-11-06T19:52:12.393408</EPOCH><MEAN_MOTION>14.78634746</MEAN_MOTION><ECCENTRICITY>.001452</ECCENTRICITY><INCLINATION>86.7179</INCLINATION><RA_OF_ASC_NODE>70.5661</RA_OF_ASC_NODE><ARG_OF_PERICENTER>356.4809</ARG_OF_PERICENTER><MEAN_ANOMALY>3.6307</MEAN_ANOMALY></meanElements><tleParameters><EPHEMERIS_TYPE>0</EPHEMERIS_TYPE><CLASSIFICATION_TYPE>U</CLASSIFICATION_TYPE><NORAD_CAT_ID>56712</NORAD_CAT_ID><ELEMENT_SET_NO>999</ELEMENT_SET_NO><REV_AT_EPOCH>2531</REV_AT_EPOCH><BSTAR>.57667E-3</BSTAR><MEAN_MOTION_DOT>.4253E-4</MEAN_MOTION_DOT><MEAN_MOTION_DDOT>0</MEAN_MOTION_DDOT></tleParameters></data></segment></body></omm>
<omm id="CCSDS_OMM_VERS" version="2.0">
<header><CREATION_DATE/><ORIGINATOR/></header><body><segment><metadata><OBJECT_NAME>ONEWEB-0677</OBJECT_NAME><OBJECT_ID>2023-068D</OBJECT_ID><CENTER_NAME>EARTH</CENTER_NAME><REF_FRAME>TEME</REF_FRAME><TIME_SYSTEM>UTC</TIME_SYSTEM><MEAN_ELEMENT_THEORY>SGP4</MEAN_ELEMENT_THEORY></metadata><data><meanElements><EPOCH>2023-11-06T21:49:18.251328</EPOCH><MEAN_MOTION>13.34760698</MEAN_MOTION><ECCENTRICITY>.0002323</ECCENTRICITY><INCLINATION>88.3220</INCLINATION><RA_OF_ASC_NODE>97.1181</RA_OF_ASC_NODE><ARG_OF_PERICENTER>89.5665</ARG_OF_PERICENTER><MEAN_ANOMALY>270.5743</MEAN_ANOMALY></meanElements><tleParameters><EPHEMERIS_TYPE>0</EPHEMERIS_TYPE><CLASSIFICATION_TYPE>U</CLASSIFICATION_TYPE><NORAD_CAT_ID>56713</NORAD_CAT_ID><ELEMENT_SET_NO>999</ELEMENT_SET_NO><REV_AT_EPOCH>2366</REV_AT_EPOCH><BSTAR>.2456E-3</BSTAR><MEAN_MOTION_DOT>.136E-5</MEAN_MOTION_DOT><MEAN_MOTION_DDOT>0</MEAN_MOTION_DDOT></tleParameters></data></segment></body></omm>

</ndm>
