ONEWEB-0647             
1 56079U 23043AK  23311.12679643 -.00001381  00000+0 -37029-2 0  9994
2 56079  87.8981  88.9680 0001763  81.3755 278.7575 13.15556949 31110
ONEWEB-0651             
1 56080U 23043AL  23310.89387329 -.00000163  00000+0 -46655-3 0  9999
2 56080  87.8969  88.9865 0002442  89.2533 270.8877 13.15548872 32282
ONEWEB-0718             
1 56081U 23043AM  23310.88912967 -.00000068  00000+0 -21365-3 0  9996
2 56081  87.8904  88.9912 0001481 121.0691 239.0585 13.15549022 31096
GSLV R/B                
1 56082U 23043AN  23310.79162158  .00078541  00000+0  13665-2 0  9998
2 56082  87.4119  62.3274 0019217 223.6958 136.2782 15.50297057 34795
ONEWEB-0561             
1 56710U 23068A   23310.92387381  .00000057  00000+0  89073-4 0  9990
2 56710  88.2886  99.1422 0001674  64.7115 295.4199 13.34312171 23482
ONEWEB-0668             
1 56711U 23068B   23310.81262752  .00007048  00000+0  95481-3 0  9999
2 56711  86.7220  70.6502 0014521 354.4084   5.6973 14.78752488 25313
ONEWEB-0676             
1 56712U 23068C   23310.82792122  .00004253  00000+0  57667-3 0  9999
2 56712  86.7179  70.5661 0014520 356.4809   3.6307 14.78634746 25313
ONEWEB-0677             
1 56713U 23068D   23310.90923902  .00000136  00000+0  24560-3 0  9993
2 56713  88.3220  97.1181 0002323  89.5665 270.5743 13.34760698 23665
